CTC2_L_00147016-03
1 10062U 26052QR  26075.70042824  .00000000  00000+0  00000-0 0  9990
2 10062  80.0000 180.0000 0000000   0.0000   0.0000 15.08756051    17
CTC2_L_00147016-04
1 10063U 23571O   26075.70042824  .00000000  00000+0  00000-0 0  9994
2 10063  80.0000 180.0000 0000000   0.0000  90.0000 15.08756051    17
CTC2_L_00147017-01
1 10064U 22826XR  26075.70042824  .00000000  00000+0  00000-0 0  9997
2 10064  80.0000 192.0000 0000000   0.0000 192.0000 15.08756051    14
CTC2_L_00147017-02
1 10065U 25310SP  26075.70042824  .00000000  00000+0  00000-0 0  9999
2 10065  80.0000 192.0000 0000000   0.0000 282.0000 15.08756051    15
CTC2_L_00147017-03
1 10066U 23872BF  26075.70042824  .00000000  00000+0  00000-0 0  9991
2 10066  80.0000 192.0000 0000000   0.0000  12.0000 15.08756051    17
CTC2_L_00147017-04
1 10067U 22295JM  26075.70042824  .00000000  00000+0  00000-0 0  9990
2 10067  80.0000 192.0000 0000000   0.0000 102.0000 15.08756051    18
CTC2_L_00147018-01
1 10068U 26122AQ  26075.70042824  .00000000  00000+0  00000-0 0  9994
2 10068  80.0000 204.0000 0000000   0.0000 204.0000 15.08756051    16
CTC2_L_00147018-02
1 10069U 23401OX  26075.70042824  .00000000  00000+0  00000-0 0  9992
2 10069  80.0000 204.0000 0000000   0.0000 294.0000 15.08756051    16
CTC2_L_00147018-03
1 10070U 22089ZW  26075.70042824  .00000000  00000+0  00000-0 0  9995
2 10070  80.0000 204.0000 0000000   0.0000  24.0000 15.08756051    19
CTC2_L_00147018-04
1 10071U 25444PA  26075.70042824  .00000000  00000+0  00000-0 0  9994
2 10071  80.0000 204.0000 0000000   0.0000 114.0000 15.08756051    10
CTC2_L_00147019-01
1 10072U 24338OS  26075.70042824  .00000000  00000+0  00000-0 0  9996
2 10072  80.0000 216.0000 0000000   0.0000 216.0000 15.08756051    17
CTC2_L_00147019-02
1 10073U 22997JW  26075.70042824  .00000000  00000+0  00000-0 0  9996
2 10073  80.0000 216.0000 0000000   0.0000 306.0000 15.08756051    18
CTC2_L_00147019-03
1 10074U 25155PV  26075.70042824  .00000000  00000+0  00000-0 0  9996
2 10074  80.0000 216.0000 0000000   0.0000  36.0000 15.08756051    19
CTC2_L_00147019-04
1 10075U 26145BM  26075.70042824  .00000000  00000+0  00000-0 0  9997
2 10075  80.0000 216.0000 0000000   0.0000 126.0000 15.08756051    10
CTC2_L_00147020-01
1 10076U 25352TR  26075.70042824  .00000000  00000+0  00000-0 0  9997
2 10076  80.0000 228.0000 0000000   0.0000 228.0000 15.08756051    17
CTC2_L_00147020-02
1 10077U 24968WG  26075.70042824  .00000000  00000+0  00000-0 0  9990
2 10077  80.0000 228.0000 0000000   0.0000 318.0000 15.08756051    18
CTC2_L_00147020-03
1 10078U 22951R   26075.70042824  .00000000  00000+0  00000-0 0  9991
2 10078  80.0000 228.0000 0000000   0.0000  48.0000 15.08756051    19
CTC2_L_00147020-04
1 10079U 23965LJ  26075.70042824  .00000000  00000+0  00000-0 0  9998
2 10079  80.0000 228.0000 0000000   0.0000 138.0000 15.08756051    10
CTC2_L_00147021-01
1 10080U 24121TK  26075.70042824  .00000000  00000+0  00000-0 0  9995
2 10080  80.0000 240.0000 0000000   0.0000 240.0000 15.08756051    10
CTC2_L_00147021-02
1 10081U 25545ED  26075.70042824  .00000000  00000+0  00000-0 0  9997
2 10081  80.0000 240.0000 0000000   0.0000 330.0000 15.08756051    11
CTC2_L_00147021-03
1 10082U 23366KE  26075.70042824  .00000000  00000+0  00000-0 0  9997
2 10082  80.0000 240.0000 0000000   0.0000  60.0000 15.08756051    12
CTC2_L_00147021-04
1 10083U 23739NW  26075.70042824  .00000000  00000+0  00000-0 0  9992
2 10083  80.0000 240.0000 0000000   0.0000 150.0000 15.08756051    13
CTC2_L_00147022-01
1 10084U 25972TO  26075.70042824  .00000000  00000+0  00000-0 0  9994
2 10084  80.0000 252.0000 0000000   0.0000 252.0000 15.08756051    10
CTC2_L_00147022-02
1 10085U 26462PD  26075.70042824  .00000000  00000+0  00000-0 0  9990
2 10085  80.0000 252.0000 0000000   0.0000 342.0000 15.08756051    11
CTC2_L_00147022-03
1 10086U 23917Y   26075.70042824  .00000000  00000+0  00000-0 0  9993
2 10086  80.0000 252.0000 0000000   0.0000  72.0000 15.08756051    12
CTC2_L_00147022-04
1 10087U 23148MV  26075.70042824  .00000000  00000+0  00000-0 0  9990
2 10087  80.0000 252.0000 0000000   0.0000 162.0000 15.08756051    13
CTC2_L_00147023-01
1 10088U 26306FJ  26075.70042824  .00000000  00000+0  00000-0 0  9990
2 10088  80.0000 264.0000 0000000   0.0000 264.0000 15.08756051    10
CTC2_L_00147023-02
1 10089U 23250PN  26075.70042824  .00000000  00000+0  00000-0 0  9996
2 10089  80.0000 264.0000 0000000   0.0000 354.0000 15.08756051    11
CTC2_L_00147023-03
1 10090U 25472AW  26075.70042824  .00000000  00000+0  00000-0 0  9996
2 10090  80.0000 264.0000 0000000   0.0000  84.0000 15.08756051    13
CTC2_L_00147023-04
1 10091U 22400GZ  26075.70042824  .00000000  00000+0  00000-0 0  9995
2 10091  80.0000 264.0000 0000000   0.0000 174.0000 15.08756051    14
CTC2_L_00147024-01
1 10092U 25859HF  26075.70042824  .00000000  00000+0  00000-0 0  9997
2 10092  80.0000 276.0000 0000000   0.0000 276.0000 15.08756051    11
CTC2_L_00147024-02
1 10093U 23531MH  26075.70042824  .00000000  00000+0  00000-0 0  9993
2 10093  80.0000 276.0000 0000000   0.0000   6.0000 15.08756051    13
CTC2_L_00147024-03
1 10094U 22720AR  26075.70042824  .00000000  00000+0  00000-0 0  9993
2 10094  80.0000 276.0000 0000000   0.0000  96.0000 15.08756051    13
CTC2_L_00147024-04
1 10095U 26416VH  26075.70042824  .00000000  00000+0  00000-0 0  9990
2 10095  80.0000 276.0000 0000000   0.0000 186.0000 15.08756051    14
CTC2_L_00147025-01
1 10096U 25155QI  26075.70042824  .00000000  00000+0  00000-0 0  9990
2 10096  80.0000 288.0000 0000000   0.0000 288.0000 15.08756051    11
CTC2_L_00147025-02
1 10097U 25383XR  26075.70042824  .00000000  00000+0  00000-0 0  9994
2 10097  80.0000 288.0000 0000000   0.0000  18.0000 15.08756051    13
CTC2_L_00147025-03
1 10098U 23561XD  26075.70042824  .00000000  00000+0  00000-0 0  9991
2 10098  80.0000 288.0000 0000000   0.0000 108.0000 15.08756051    14
CTC2_L_00147025-04
1 10099U 26165WF  26075.70042824  .00000000  00000+0  00000-0 0  9995
2 10099  80.0000 288.0000 0000000   0.0000 198.0000 15.08756051    14
CTC2_L_00147026-01
1 10100U 23035XL  26075.70042824  .00000000  00000+0  00000-0 0  9991
2 10100  80.0000 300.0000 0000000   0.0000 300.0000 15.08756051    17
CTC2_L_00147026-02
1 10101U 26579TH  26075.70042824  .00000000  00000+0  00000-0 0  9998
2 10101  80.0000 300.0000 0000000   0.0000  30.0000 15.08756051    18
CTC2_L_00147026-03
1 10102U 26690RD  26075.70042824  .00000000  00000+0  00000-0 0  9993
2 10102  80.0000 300.0000 0000000   0.0000 120.0000 15.08756051    19
CTC2_L_00147026-04
1 10103U 22196XR  26075.70042824  .00000000  00000+0  00000-0 0  9991
2 10103  80.0000 300.0000 0000000   0.0000 210.0000 15.08756051    10
CTC2_L_00147027-01
1 10104U 24754XN  26075.70042824  .00000000  00000+0  00000-0 0  9994
2 10104  80.0000 312.0000 0000000   0.0000 312.0000 15.08756051    17
CTC2_L_00147027-02
1 10105U 23695FJ  26075.70042824  .00000000  00000+0  00000-0 0  9998
2 10105  80.0000 312.0000 0000000   0.0000  42.0000 15.08756051    18
CTC2_L_00147027-03
1 10106U 26061RG  26075.70042824  .00000000  00000+0  00000-0 0  9999
2 10106  80.0000 312.0000 0000000   0.0000 132.0000 15.08756051    19
CTC2_L_00147027-04
1 10107U 24732VW  26075.70042824  .00000000  00000+0  00000-0 0  9993
2 10107  80.0000 312.0000 0000000   0.0000 222.0000 15.08756051    10
CTC2_L_00147028-01
1 10108U 23577QB  26075.70042824  .00000000  00000+0  00000-0 0  9990
2 10108  80.0000 324.0000 0000000   0.0000 324.0000 15.08756051    17
CTC2_L_00147028-02
1 10109U 26674SW  26075.70042824  .00000000  00000+0  00000-0 0  9992
2 10109  80.0000 324.0000 0000000   0.0000  54.0000 15.08756051    18
CTC2_L_00147028-03
1 10110U 22241ZB  26075.70042824  .00000000  00000+0  00000-0 0  9990
2 10110  80.0000 324.0000 0000000   0.0000 144.0000 15.08756051    10
CTC2_L_00147028-04
1 10111U 24761EF  26075.70042824  .00000000  00000+0  00000-0 0  9990
2 10111  80.0000 324.0000 0000000   0.0000 234.0000 15.08756051    11
CTC2_L_00147029-01
1 10112U 25820TA  26075.70042824  .00000000  00000+0  00000-0 0  9998
2 10112  80.0000 336.0000 0000000   0.0000 336.0000 15.08756051    18
CTC2_L_00147029-02
1 10113U 25611RE  26075.70042824  .00000000  00000+0  00000-0 0  9997
2 10113  80.0000 336.0000 0000000   0.0000  66.0000 15.08756051    19
CTC2_L_00147029-03
1 10114U 24076BP  26075.70042824  .00000000  00000+0  00000-0 0  9992
2 10114  80.0000 336.0000 0000000   0.0000 156.0000 15.08756051    10
CTC2_L_00147029-04
1 10115U 24167NG  26075.70042824  .00000000  00000+0  00000-0 0  9994
2 10115  80.0000 336.0000 0000000   0.0000 246.0000 15.08756051    11
CTC2_L_00147030-01
1 10116U 23386FR  26075.70042824  .00000000  00000+0  00000-0 0  9997
2 10116  80.0000 348.0000 0000000   0.0000 348.0000 15.08756051    18
CTC2_L_00147030-02
1 10117U 25835GC  26075.70042824  .00000000  00000+0  00000-0 0  9999
2 10117  80.0000 348.0000 0000000   0.0000  78.0000 15.08756051    19
CTC2_L_00147030-03
1 10118U 25413AS  26075.70042824  .00000000  00000+0  00000-0 0  9992
2 10118  80.0000 348.0000 0000000   0.0000 168.0000 15.08756051    10
CTC2_L_00147030-04
1 10119U 23293YK  26075.70042824  .00000000  00000+0  00000-0 0  9997
2 10119  80.0000 348.0000 0000000   0.0000 258.0000 15.08756051    11
